NORAD_CAT_ID,OBJECT_NAME,OBJECT_TYPE,EPOCH,MEAN_MOTION,ECCENTRICITY,INCLINATION,RA_OF_ASC_NODE,ARG_OF_PERICENTER,MEAN_ANOMALY,BSTAR,MEAN_MOTION_DOT,MEAN_MOTION_DDOT,TLE_LINE0,TLE_LINE1,TLE_LINE2,SEMIMAJOR_AXIS,PERIOD,APOGEE,PERIGEE,DECAYED
50806.0,STARLINK-3335,PAYLOAD,2023-09-09 10:09:33,15.08834573,0.000142,53.2177,294.4462,97.7694,262.346,6.7992e-05,7.94e-06,0.0,0 STARLINK-3335,1 50806U 22001D   23252.42330355  .00000794  00000-0  67992-4 0  9990,2 50806  53.2177 294.4462 0001420  97.7694 262.3460 15.08834573 94095,6917.897,95.438,540.744,538.78,0.0
50806.0,STARLINK-3335,PAYLOAD,2023-09-10 10:00:17,15.08873566,0.0001562,53.2177,289.9854,96.2413,263.8757,0.0003676,5.572e-05,0.0,0 STARLINK-3335,1 50806U 22001D   23253.41686907  .00005572  00000-0  36760-3 0  9994,2 50806  53.2177 289.9854 0001562  96.2413 263.8757 15.08873566 94246,6917.778,95.435,540.723,538.562,0.0
50806.0,STARLINK-3335,PAYLOAD,2023-09-10 11:35:40,15.08874603,0.0001572,53.2177,289.688,96.9139,263.2032,0.00037185,5.64e-05,0.0,0 STARLINK-3335,1 50806U 22001D   23253.48310737  .00005640  00000-0  37185-3 0  9994,2 50806  53.2177 289.6880 0001572  96.9139 263.2032 15.08874603 92987,6917.775,95.435,540.727,538.552,0.0
50806.0,STARLINK-3335,PAYLOAD,2023-09-11 01:54:10,15.0884491,0.0001645,53.216,287.0105,90.1482,269.9699,0.00013981,1.938e-05,0.0,0 STARLINK-3335,1 50806U 22001D   23254.07928982  .00001938  00000-0  13981-3 0  9991,2 50806  53.2160 287.0105 0001645  90.1482 269.9699 15.08844910 94341,6917.865,95.437,540.868,538.592,0.0
50806.0,STARLINK-3335,PAYLOAD,2023-09-11 09:51:06,15.08839468,0.0001283,53.2159,285.5217,88.1718,271.9422,1.7749e-05,-5e-08,0.0,0 STARLINK-3335,1 50806U 22001D   23254.41049701 -.00000005  00000-0  17749-4 0  9994,2 50806  53.2159 285.5217 0001283  88.1718 271.9422 15.08839468 94397,6917.882,95.438,540.635,538.859,0.0
50806.0,STARLINK-3335,PAYLOAD,2023-09-12 11:17:16,15.08854527,0.0001519,53.2163,280.7643,89.5054,270.6113,-0.00020127,-3.491e-05,0.0,0 STARLINK-3335,1 50806U 22001D   23255.47033232 -.00003491  00000-0 -20127-3 0  9999,2 50806  53.2163 280.7643 0001519  89.5054 270.6113 15.08854527 93285,6917.836,95.437,540.752,538.65,0.0
50806.0,STARLINK-3335,PAYLOAD,2023-09-13 07:57:17,15.08839772,0.0001709,53.2169,276.8997,82.3871,277.7315,0.00022198,3.247e-05,0.0,0 STARLINK-3335,1 50806U 22001D   23256.33145433  .00003247  00000-0  22198-3 0  9999,2 50806  53.2169 276.8997 0001709  82.3871 277.7315 15.08839772 94680,6917.881,95.438,540.928,538.564,0.0
50806.0,STARLINK-3335,PAYLOAD,2023-09-13 11:08:04,15.08845248,0.000165,53.2155,276.3041,84.6897,275.4283,0.00036255,5.487e-05,0.0,0 STARLINK-3335,1 50806U 22001D   23256.46393589  .00005487  00000-0  36255-3 0  9997,2 50806  53.2155 276.3041 0001650  84.6897 275.4283 15.08845248 93434,6917.864,95.437,540.871,538.588,0.0
50806.0,STARLINK-3335,PAYLOAD,2023-09-13 19:05:00,15.08827769,0.0002281,53.2157,274.8186,87.7548,272.3705,8.7887e-05,1.11e-05,0.0,0 STARLINK-3335,1 50806U 22001D   23256.79514890  .00001110  00000-0  87887-4 0  9990,2 50806  53.2157 274.8186 0002281  87.7548 272.3705 15.08827769 93485,6917.918,95.438,541.361,538.205,0.0
50806.0,STARLINK-3335,PAYLOAD,2023-09-14 01:26:33,15.08829355,0.0001881,53.2163,273.6289,92.897,267.2237,6.7286e-05,7.83e-06,0.0,0 STARLINK-3335,1 50806U 22001D   23257.06010867  .00000783  00000-0  67286-4 0  9992,2 50806  53.2163 273.6289 0001881  92.8970 267.2237 15.08829355 94795,6917.913,95.438,541.079,538.477,0.0
50806.0,STARLINK-3335,PAYLOAD,2023-09-14 07:48:06,15.08828289,0.0001788,53.2164,272.4396,96.6228,263.4968,-6.9432e-06,-3.99e-06,0.0,0 STARLINK-3335,1 50806U 22001D   23257.32506980 -.00000399  00000-0 -69432-5 0  9998,2 50806  53.2164 272.4396 0001788  96.6228 263.4968 15.08828289 93564,6917.916,95.438,541.018,538.544,0.0
50806.0,STARLINK-3335,PAYLOAD,2023-09-15 04:28:06,15.08840068,0.0001768,53.2163,268.5735,104.9292,255.1896,0.00019273,2.781e-05,0.0,0 STARLINK-3335,1 50806U 22001D   23258.18618971  .00002781  00000-0  19273-3 0  9998,2 50806  53.2163 268.5735 0001768 104.9292 255.1896 15.08840068 94960,6917.88,95.438,540.968,538.522,0.0
50806.0,STARLINK-3335,PAYLOAD,2023-09-15 07:38:54,15.0878547,0.0001934,53.2155,267.9757,118.6785,241.4402,-0.0009175,-0.00014839,0.0,0 STARLINK-3335,1 50806U 22001D   23258.31868782 -.00014839  00000-0 -91750-3 0  9999,2 50806  53.2155 267.9757 0001934 118.6785 241.4402 15.08785470 94980,6918.047,95.441,541.25,538.574,0.0
50806.0,STARLINK-3335,PAYLOAD,2023-09-15 17:11:11,15.08842691,0.0001612,53.2158,266.1933,95.6734,264.4442,0.00025514,3.775e-05,0.0,0 STARLINK-3335,1 50806U 22001D   23258.71610903  .00003775  00000-0  25514-3 0  9993,2 50806  53.2158 266.1933 0001612  95.6734 264.4442 15.08842691 95047,6917.872,95.437,540.852,538.622,0.0
50806.0,STARLINK-3335,PAYLOAD,2023-09-16 07:29:40,15.08842231,0.0001808,53.2164,263.5201,100.2229,259.8967,0.00027846,4.147e-05,0.0,0 STARLINK-3335,1 50806U 22001D   23259.31227140  .00004147  00000-0  27846-3 0  9991,2 50806  53.2164 263.5201 0001808 100.2229 259.8967 15.08842231 93860,6917.874,95.437,540.989,538.488,0.0
50806.0,STARLINK-3335,PAYLOAD,2023-09-16 17:01:59,15.08840457,0.0001769,53.216,261.7355,96.8056,263.3138,0.000132,1.813e-05,0.0,0 STARLINK-3335,1 50806U 22001D   23259.70971165  .00001813  00000-0  13200-3 0  9993,2 50806  53.2160 261.7355 0001769  96.8056 263.3138 15.08840457 95196,6917.879,95.438,540.968,538.52,0.0
50806.0,STARLINK-3335,PAYLOAD,2023-09-17 05:45:03,15.08848436,0.0001998,53.2162,259.3561,104.6438,255.4775,2.327e-05,8.2e-07,0.0,0 STARLINK-3335,1 50806U 22001D   23260.23962715  .00000082  00000-0  23270-4 0  9990,2 50806  53.2162 259.3561 0001998 104.6438 255.4775 15.08848436 94009,6917.855,95.437,541.102,538.337,0.0
50806.0,STARLINK-3335,PAYLOAD,2023-09-17 16:52:45,15.08858887,0.0002389,53.2163,257.2741,75.4197,284.706,-0.00031926,-5.369e-05,0.0,0 STARLINK-3335,1 50806U 22001D   23260.70330095 -.00005369  00000-0 -31926-3 0  9993,2 50806  53.2163 257.2741 0002389  75.4197 284.7060 15.08858887 95340,6917.823,95.436,541.34,538.035,0.0
50806.0,STARLINK-3335,PAYLOAD,2023-09-18 00:49:41,15.08840106,0.0001807,53.2165,255.7875,96.8663,263.2535,4.061e-05,3.58e-06,0.0,0 STARLINK-3335,1 50806U 22001D   23261.03451090  .00000358  00000-0  40610-4 0  9991,2 50806  53.2165 255.7875 0001807  96.8663 263.2535 15.08840106 95391,6917.88,95.438,540.995,538.495,0.0
50806.0,STARLINK-3335,PAYLOAD,2023-09-18 05:35:51,15.08840903,0.0001786,53.2173,254.8956,97.9289,262.1906,6.5951e-05,7.62e-06,0.0,0 STARLINK-3335,1 50806U 22001D   23261.23323346  .00000762  00000-0  65951-4 0  9999,2 50806  53.2173 254.8956 0001786  97.9289 262.1906 15.08840903 94150,6917.878,95.437,540.978,538.507,0.0
50806.0,STARLINK-3335,PAYLOAD,2023-09-18 16:43:33,15.08843439,0.0001818,53.2177,252.8127,89.876,270.244,9.5279e-05,1.229e-05,0.0,0 STARLINK-3335,1 50806U 22001D   23261.69691126  .00001229  00000-0  95279-4 0  9998,2 50806  53.2177 252.8127 0001818  89.8760 270.2440 15.08843439 94220,6917.87,95.437,540.993,538.477,0.0
50806.0,STARLINK-3335,PAYLOAD,2023-09-19 08:37:23,15.08853372,0.0001681,53.216,249.8389,95.6202,264.4981,0.00024983,3.692e-05,0.0,0 STARLINK-3335,1 50806U 22001D   23262.35930371  .00003692  00000-0  24983-3 0  9999,2 50806  53.2160 249.8389 0001681  95.6202 264.4981 15.08853372 95595,6917.84,95.437,540.867,538.542,0.0
50806.0,STARLINK-3335,PAYLOAD,2023-09-19 16:34:20,15.08838173,0.000196,53.2173,248.3522,83.7543,276.3672,3.6933e-05,3e-06,0.0,0 STARLINK-3335,1 50806U 22001D   23262.69051278  .00000300  00000-0  36933-4 0  9998,2 50806  53.2173 248.3522 0001960  83.7543 276.3672 15.08838173 95645,6917.886,95.438,541.107,538.395,0.0
50806.0,STARLINK-3335,PAYLOAD,2023-09-20 08:28:11,15.08837366,0.0001563,53.215,245.3776,88.3039,271.8132,3.7008e-05,3.01e-06,0.0,0 STARLINK-3335,1 50806U 22001D   23263.35291414  .00000301  00000-0  37008-4 0  9995,2 50806  53.2150 245.3776 0001563  88.3039 271.8132 15.08837366 94472,6917.888,95.438,540.835,538.672,0.0
50806.0,STARLINK-3335,PAYLOAD,2023-09-21 01:57:26,15.08836305,0.0001549,53.2161,242.1055,90.5441,269.5729,7.9186e-05,9.72e-06,0.0,0 STARLINK-3335,1 50806U 22001D   23264.08155694  .00000972  00000-0  79186-4 0  9992,2 50806  53.2161 242.1055 0001549  90.5441 269.5729 15.08836305 95856,6917.892,95.438,540.828,538.685,0.0
50806.0,STARLINK-3335,PAYLOAD,2023-09-21 08:18:58,15.08839735,0.0001614,53.2161,240.9148,96.4144,263.7032,2.0037e-05,3.1e-07,0.0,0 STARLINK-3335,1 50806U 22001D   23264.34651602  .00000031  00000-0  20037-4 0  9998,2 50806  53.2161 240.9148 0001614  96.4144 263.7032 15.08839735 94620,6917.881,95.438,540.863,538.63,0.0
50806.0,STARLINK-3335,PAYLOAD,2023-09-22 04:58:59,15.08846966,0.0001566,53.2157,237.0503,93.6214,266.4957,0.00026765,3.975e-05,0.0,0 STARLINK-3335,1 50806U 22001D   23265.20763420  .00003975  00000-0  26765-3 0  9999,2 50806  53.2157 237.0503 0001566  93.6214 266.4957 15.08846966 96026,6917.859,95.437,540.807,538.641,0.0
50806.0,STARLINK-3335,PAYLOAD,2023-09-23 03:14:23,15.08843875,0.0001529,53.216,232.887,94.5035,265.6132,0.00015818,2.231e-05,0.0,0 STARLINK-3335,1 50806U 22001D   23266.13499552  .00002231  00000-0  15818-3 0  9995,2 50806  53.2160 232.8870 0001529  94.5035 265.6132 15.08843875 96167,6917.869,95.437,540.791,538.676,0.0
50806.0,STARLINK-3335,PAYLOAD,2023-09-23 04:49:46,15.08846572,0.0001563,53.216,232.5923,88.7227,271.3944,0.00019039,2.744e-05,0.0,0 STARLINK-3335,1 50806U 22001D   23266.20123592  .00002744  00000-0  19039-3 0  9999,2 50806  53.2160 232.5923 0001563  88.7227 271.3944 15.08846572 94901,6917.86,95.437,540.807,538.644,0.0
50806.0,STARLINK-3335,PAYLOAD,2023-09-24 06:15:56,15.08845668,0.0001338,53.2157,227.8347,94.4391,265.6754,0.00012483,1.7e-05,0.0,0 STARLINK-3335,1 50806U 22001D   23267.26107358  .00001700  00000-0  12483-3 0  9995,2 50806  53.2157 227.8347 0001338  94.4391 265.6754 15.08845668 96339,6917.863,95.437,540.654,538.802,0.0
